{"type": "FeatureCollection", "features": [ {"type": "Feature", "properties": {"norad_id": 67121, "name": "STARLINK-36124", "group": "last-30-days", "lat": -16.006781909054638, "lon": 69.77462408772507, "alt_km": 335.1040919406487, "timestamp": "2025-12-26T13:39:17.668926+00:00", "meta": {"OBJECT_NAME": "STARLINK-36124", "OBJECT_ID": "2025-299V", "EPOCH": "2025-12-26T06:00:02.999808", "MEAN_MOTION": 15.80080771, "ECCENTRICITY": 0.0001527, "INCLINATION": 42.9973, "RA_OF_ASC_NODE": 233.7906, "ARG_OF_PERICENTER": 277.6559, "MEAN_ANOMALY": 270.5426, "EPHEMERIS_TYPE": 0, "CLASSIFICATION_TYPE": "U", "NORAD_CAT_ID": 67121, "ELEMENT_SET_NO": 999, "REV_AT_EPOCH": 298, "BSTAR": -0.010654564, "MEAN_MOTION_DOT": -0.01802794, "MEAN_MOTION_DDOT": 0}, "tle": {"line1": "1 67121U 25299V   25360.25003472 -.01802794  00000+0 -10655-1 0  9993", "line2": "2 67121  42.9973 233.7906 0001527 277.6559 270.5426 15.80080771  2981"}}, "geometry": {"type": "Point", "coordinates": [69.77462408772507, -16.006781909054638]}}, {"type": "Feature", "properties": {"norad_id": 67122, "name": "STARLINK-36188", "group": "last-30-days", "lat": -17.018661993784843, "lon": 71.01720682865486, "alt_km": 334.87787847972504, "timestamp": "2025-12-26T13:39:17.668936+00:00", "meta": {"OBJECT_NAME": "STARLINK-36188", "OBJECT_ID": "2025-299W", "EPOCH": "2025-12-26T06:00:02.999808", "MEAN_MOTION": 15.8009961, "ECCENTRICITY": 0.00015654, "INCLINATION": 42.9974, "RA_OF_ASC_NODE": 233.787, "ARG_OF_PERICENTER": 267.3606, "MEAN_ANOMALY": 282.3834, "EPHEMERIS_TYPE": 0, "CLASSIFICATION_TYPE": "U", "NORAD_CAT_ID": 67122, "ELEMENT_SET_NO": 999, "REV_AT_EPOCH": 298, "BSTAR": -0.01067154, "MEAN_MOTION_DOT": -0.01806731, "MEAN_MOTION_DDOT": 0}, "tle": {"line1": "1 67122U 25299W   25360.25003472 -.01806731  00000+0 -10672-1 0  9998", "line2": "2 67122  42.9974 233.7870 0001565 267.3606 282.3834 15.80099610  2980"}}, "geometry": {"type": "Point", "coordinates": [71.01720682865486, -17.018661993784843]}}, {"type": "Feature", "properties": {"norad_id": 67123, "name": "STARLINK-36151", "group": "last-30-days", "lat": -14.8439701732626, "lon": 68.37326229859788, "alt_km": 334.80823185303507, "timestamp": "2025-12-26T13:39:17.668948+00:00", "meta": {"OBJECT_NAME": "STARLINK-36151", "OBJECT_ID": "2025-299X", "EPOCH": "2025-12-26T06:00:02.999808", "MEAN_MOTION": 15.80081559, "ECCENTRICITY": 0.00015577, "INCLINATION": 42.9976, "RA_OF_ASC_NODE": 233.7956, "ARG_OF_PERICENTER": 268.0216, "MEAN_ANOMALY": 278.3908, "EPHEMERIS_TYPE": 0, "CLASSIFICATION_TYPE": "U", "NORAD_CAT_ID": 67123, "ELEMENT_SET_NO": 999, "REV_AT_EPOCH": 298, "BSTAR": -0.010689818, "MEAN_MOTION_DOT": -0.01808107, "MEAN_MOTION_DDOT": 0}, "tle": {"line1": "1 67123U 25299X   25360.25003472 -.01808107  00000+0 -10690-1 0  9998", "line2": "2 67123  42.9976 233.7956 0001557 268.0216 278.3908 15.80081559  2984"}}, "geometry": {"type": "Point", "coordinates": [68.37326229859788, -14.8439701732626]}}, {"type": "Feature", "properties": {"norad_id": 67124, "name": "STARLINK-36195", "group": "last-30-days", "lat": -18.109344643826137, "lon": 72.38234881134845, "alt_km": 334.86363771568085, "timestamp": "2025-12-26T13:39:17.668960+00:00", "meta": {"OBJECT_NAME": "STARLINK-36195", "OBJECT_ID": "2025-299Y", "EPOCH": "2025-12-26T06:00:02.999808", "MEAN_MOTION": 15.80107585, "ECCENTRICITY": 0.00016184, "INCLINATION": 42.9976, "RA_OF_ASC_NODE": 233.7829, "ARG_OF_PERICENTER": 265.3863, "MEAN_ANOMALY": 286.0509, "EPHEMERIS_TYPE": 0, "CLASSIFICATION_TYPE": "U", "NORAD_CAT_ID": 67124, "ELEMENT_SET_NO": 999, "REV_AT_EPOCH": 298, "BSTAR": -0.010674012, "MEAN_MOTION_DOT": -0.01807732, "MEAN_MOTION_DDOT": 0}, "tle": {"line1": "1 67124U 25299Y   25360.25003472 -.01807732  00000+0 -10674-1 0  9994", "line2": "2 67124  42.9976 233.7829 0001618 265.3863 286.0509 15.80107585  2981"}}, "geometry": {"type": "Point", "coordinates": [72.38234881134845, -18.109344643826137]}}, {"type": "Feature", "properties": {"norad_id": 67125, "name": "STARLINK-36219", "group": "last-30-days", "lat": -19.14188103595955, "lon": 73.7017135822584, "alt_km": 334.979154716013, "timestamp": "2025-12-26T13:39:17.668970+00:00", "meta": {"OBJECT_NAME": "STARLINK-36219", "OBJECT_ID": "2025-299Z", "EPOCH": "2025-12-26T06:00:02.999808", "MEAN_MOTION": 15.80115815, "ECCENTRICITY": 0.00015579, "INCLINATION": 42.9972, "RA_OF_ASC_NODE": 233.7782, "ARG_OF_PERICENTER": 268.3976, "MEAN_ANOMALY": 284.6542, "EPHEMERIS_TYPE": 0, "CLASSIFICATION_TYPE": "U", "NORAD_CAT_ID": 67125, "ELEMENT_SET_NO": 999, "REV_AT_EPOCH": 298, "BSTAR": -0.010647233, "MEAN_MOTION_DOT": -0.01804306, "MEAN_MOTION_DDOT": 0}, "tle": {"line1": "1 67125U 25299Z   25360.25003472 -.01804306  00000+0 -10647-1 0  9999", "line2": "2 67125  42.9972 233.7782 0001557 268.3976 284.6542 15.80115815  2982"}}, "geometry": {"type": "Point", "coordinates": [73.7017135822584, -19.14188103595955]}}, {"type": "Feature", "properties": {"norad_id": 67126, "name": "STARLINK-36223", "group": "last-30-days", "lat": -20.315299137993996, "lon": 75.23719670096662, "alt_km": 334.9881328536285, "timestamp": "2025-12-26T13:39:17.668980+00:00", "meta": {"OBJECT_NAME": "STARLINK-36223", "OBJECT_ID": "2025-299AA", "EPOCH": "2025-12-26T06:00:02.999808", "MEAN_MOTION": 15.80119962, "ECCENTRICITY": 0.00015851, "INCLINATION": 42.9974, "RA_OF_ASC_NODE": 233.7737, "ARG_OF_PERICENTER": 266.1949, "MEAN_ANOMALY": 288.7202, "EPHEMERIS_TYPE": 0, "CLASSIFICATION_TYPE": "U", "NORAD_CAT_ID": 67126, "ELEMENT_SET_NO": 999, "REV_AT_EPOCH": 298, "BSTAR": -0.010678559, "MEAN_MOTION_DOT": -0.01809289, "MEAN_MOTION_DDOT": 0}, "tle": {"line1": "1 67126U 25299AA  25360.25003472 -.01809289  00000+0 -10679-1 0  9990", "line2": "2 67126  42.9974 233.7737 0001585 266.1949 288.7202 15.80119962  2987"}}, "geometry": {"type": "Point", "coordinates": [75.23719670096662, -20.315299137993996]}}, {"type": "Feature", "properties": {"norad_id": 67127, "name": "STARLINK-36164", "group": "last-30-days", "lat": -21.39004833774639, "lon": 76.68033156093328, "alt_km": 335.0050027267016, "timestamp": "2025-12-26T13:39:17.668990+00:00", "meta": {"OBJECT_NAME": "STARLINK-36164", "OBJECT_ID": "2025-299AB", "EPOCH": "2025-12-26T06:00:02.999808", "MEAN_MOTION": 15.80127153, "ECCENTRICITY": 0.0001568, "INCLINATION": 42.9973, "RA_OF_ASC_NODE": 233.7693, "ARG_OF_PERICENTER": 265.1468, "MEAN_ANOMALY": 291.4868, "EPHEMERIS_TYPE": 0, "CLASSIFICATION_TYPE": "U", "NORAD_CAT_ID": 67127, "ELEMENT_SET_NO": 999, "REV_AT_EPOCH": 298, "BSTAR": -0.010655493, "MEAN_MOTION_DOT": -0.01806377, "MEAN_MOTION_DDOT": 0}, "tle": {"line1": "1 67127U 25299AB  25360.25003472 -.01806377  00000+0 -10655-1 0  9990", "line2": "2 67127  42.9973 233.7693 0001568 265.1468 291.4868 15.80127153  2984"}}, "geometry": {"type": "Point", "coordinates": [76.68033156093328, -21.39004833774639]}}, {"type": "Feature", "properties": {"norad_id": 67128, "name": "STARLINK-35685", "group": "last-30-days", "lat": -24.159203021123894, "lon": 80.58787494223397, "alt_km": 335.4030007853471, "timestamp": "2025-12-26T13:39:17.669000+00:00", "meta": {"OBJECT_NAME": "STARLINK-35685", "OBJECT_ID": "2025-299AC", "EPOCH": "2025-12-26T06:00:02.999808", "MEAN_MOTION": 15.80099562, "ECCENTRICITY": 0.00014797, "INCLINATION": 42.9971, "RA_OF_ASC_NODE": 233.7574, "ARG_OF_PERICENTER": 272.3555, "MEAN_ANOMALY": 288.866, "EPHEMERIS_TYPE": 0, "CLASSIFICATION_TYPE": "U", "NORAD_CAT_ID": 67128, "ELEMENT_SET_NO": 999, "REV_AT_EPOCH": 298, "BSTAR": -0.010673139, "MEAN_MOTION_DOT": -0.0180689, "MEAN_MOTION_DDOT": 0}, "tle": {"line1": "1 67128U 25299AC  25360.25003472 -.01806890  00000+0 -10673-1 0  9991", "line2": "2 67128  42.9971 233.7574 0001479 272.3555 288.8660 15.80099562  2981"}}, "geometry": {"type": "Point", "coordinates": [80.58787494223397, -24.159203021123894]}}, {"type": "Feature", "properties": {"norad_id": 67129, "name": "STARLINK-36214", "group": "last-30-days", "lat": -22.587185286898272, "lon": 78.33360401262121, "alt_km": 335.0984924290369, "timestamp": "2025-12-26T13:39:17.669009+00:00", "meta": {"OBJECT_NAME": "STARLINK-36214", "OBJECT_ID": "2025-299AD", "EPOCH": "2025-12-26T06:00:02.999808", "MEAN_MOTION": 15.80123699, "ECCENTRICITY": 0.00016094, "INCLINATION": 42.9973, "RA_OF_ASC_NODE": 233.7642, "ARG_OF_PERICENTER": 267.1968, "MEAN_ANOMALY": 291.3906, "EPHEMERIS_TYPE": 0, "CLASSIFICATION_TYPE": "U", "NORAD_CAT_ID": 67129, "ELEMENT_SET_NO": 999, "REV_AT_EPOCH": 298, "BSTAR": -0.010643257, "MEAN_MOTION_DOT": -0.0180434, "MEAN_MOTION_DDOT": 0}, "tle": {"line1": "1 67129U 25299AD  25360.25003472 -.01804340  00000+0 -10643-1 0  9997", "line2": "2 67129  42.9973 233.7642 0001609 267.1968 291.3906 15.80123699  2986"}}, "geometry": {"type": "Point", "coordinates": [78.33360401262121, -22.587185286898272]}}, {"type": "Feature", "properties": {"norad_id": 67130, "name": "STARLINK-36194", "group": "last-30-days", "lat": -26.683107962543154, "lon": 84.44279967038652, "alt_km": 335.74675957918043, "timestamp": "2025-12-26T13:39:17.669021+00:00", "meta": {"OBJECT_NAME": "STARLINK-36194", "OBJECT_ID": "2025-299AE", "EPOCH": "2025-12-26T06:00:02.999808", "MEAN_MOTION": 15.80005412, "ECCENTRICITY": 0.00012899, "INCLINATION": 42.9972, "RA_OF_ASC_NODE": 233.748, "ARG_OF_PERICENTER": 265.9966, "MEAN_ANOMALY": 299.6378, "EPHEMERIS_TYPE": 0, "CLASSIFICATION_TYPE": "U", "NORAD_CAT_ID": 67130, "ELEMENT_SET_NO": 999, "REV_AT_EPOCH": 298, "BSTAR": -0.010692195, "MEAN_MOTION_DOT": -0.01802634, "MEAN_MOTION_DDOT": 0}, "tle": {"line1": "1 67130U 25299AE  25360.25003472 -.01802634  00000+0 -10692-1 0  9997", "line2": "2 67130  42.9972 233.7480 0001289 265.9966 299.6378 15.80005412  2981"}}, "geometry": {"type": "Point", "coordinates": [84.44279967038652, -26.683107962543154]}}]}